{"type": "FeatureCollection", "features": [ {"type": "Feature", "properties": {"norad_id": 38755, "name": "SPOT 6", "group": "resource", "lat": -61.51455475745459, "lon": -151.1689046131178, "alt_km": 705.4821024818348, "timestamp": "2025-12-05T05:43:14.771307+00:00", "meta": {"OBJECT_NAME": "SPOT 6", "OBJECT_ID": "2012-047A", "EPOCH": "2025-12-04T18:44:01.426848", "MEAN_MOTION": 14.58591754, "ECCENTRICITY": 0.0001054, "INCLINATION": 98.1583, "RA_OF_ASC_NODE": 43.7112, "ARG_OF_PERICENTER": 100.7713, "MEAN_ANOMALY": 259.3605, "EPHEMERIS_TYPE": 0, "CLASSIFICATION_TYPE": "U", "NORAD_CAT_ID": 38755, "ELEMENT_SET_NO": 999, "REV_AT_EPOCH": 70471, "BSTAR": 0.00018959, "MEAN_MOTION_DOT": 8.37e-06, "MEAN_MOTION_DDOT": 0}, "tle": {"line1": "1 38755U 12047A   25338.78057207  .00000837  00000+0  18959-3 0  9991", "line2": "2 38755  98.1583  43.7112 0001054 100.7713 259.3605 14.58591754704719"}}, "geometry": {"type": "Point", "coordinates": [-151.1689046131178, -61.51455475745459]}}, {"type": "Feature", "properties": {"norad_id": 39019, "name": "PLEIADES 1B", "group": "resource", "lat": 36.99831964944113, "lon": -121.76912835346926, "alt_km": 694.7605230495237, "timestamp": "2025-12-05T05:43:14.771317+00:00", "meta": {"OBJECT_NAME": "PLEIADES 1B", "OBJECT_ID": "2012-068A", "EPOCH": "2025-12-04T17:32:40.845984", "MEAN_MOTION": 14.58540991, "ECCENTRICITY": 0.000124, "INCLINATION": 98.1804, "RA_OF_ASC_NODE": 51.509, "ARG_OF_PERICENTER": 87.3558, "MEAN_ANOMALY": 272.7783, "EPHEMERIS_TYPE": 0, "CLASSIFICATION_TYPE": "U", "NORAD_CAT_ID": 39019, "ELEMENT_SET_NO": 999, "REV_AT_EPOCH": 69250, "BSTAR": 0.00019356, "MEAN_MOTION_DOT": 8.54e-06, "MEAN_MOTION_DDOT": 0}, "tle": {"line1": "1 39019U 12068A   25338.73102831  .00000854  00000+0  19356-3 0  9998", "line2": "2 39019  98.1804  51.5090 0001240  87.3558 272.7783 14.58540991692501"}}, "geometry": {"type": "Point", "coordinates": [-121.76912835346926, 36.99831964944113]}}, {"type": "Feature", "properties": {"norad_id": 39030, "name": "GOKTURK 2", "group": "resource", "lat": -81.67027539634138, "lon": -66.08217732497678, "alt_km": 652.2039964553696, "timestamp": "2025-12-05T05:43:14.771327+00:00", "meta": {"OBJECT_NAME": "GOKTURK 2", "OBJECT_ID": "2012-073A", "EPOCH": "2025-12-04T17:07:13.274112", "MEAN_MOTION": 14.75274165, "ECCENTRICITY": 8.16e-05, "INCLINATION": 97.6898, "RA_OF_ASC_NODE": 180.7614, "ARG_OF_PERICENTER": 98.173, "MEAN_ANOMALY": 261.9573, "EPHEMERIS_TYPE": 0, "CLASSIFICATION_TYPE": "U", "NORAD_CAT_ID": 39030, "ELEMENT_SET_NO": 999, "REV_AT_EPOCH": 69583, "BSTAR": 0.00019104, "MEAN_MOTION_DOT": 1.246e-05, "MEAN_MOTION_DDOT": 0}, "tle": {"line1": "1 39030U 12073A   25338.71334808  .00001246  00000+0  19104-3 0  9993", "line2": "2 39030  97.6898 180.7614 0000816  98.1730 261.9573 14.75274165695830"}}, "geometry": {"type": "Point", "coordinates": [-66.08217732497678, -81.67027539634138]}}, {"type": "Feature", "properties": {"norad_id": 39084, "name": "LANDSAT 8", "group": "resource", "lat": -8.763380071385692, "lon": 48.697318546397305, "alt_km": 706.6144742446186, "timestamp": "2025-12-05T05:43:14.771337+00:00", "meta": {"OBJECT_NAME": "LANDSAT 8", "OBJECT_ID": "2013-008A", "EPOCH": "2025-12-04T16:34:36.045408", "MEAN_MOTION": 14.57102749, "ECCENTRICITY": 0.000116, "INCLINATION": 98.2083, "RA_OF_ASC_NODE": 46.8827, "ARG_OF_PERICENTER": 84.7723, "MEAN_ANOMALY": 275.3608, "EPHEMERIS_TYPE": 0, "CLASSIFICATION_TYPE": "U", "NORAD_CAT_ID": 39084, "ELEMENT_SET_NO": 999, "REV_AT_EPOCH": 66957, "BSTAR": 0.00028613, "MEAN_MOTION_DOT": 1.244e-05, "MEAN_MOTION_DDOT": 0}, "tle": {"line1": "1 39084U 13008A   25338.69069497  .00001244  00000+0  28613-3 0  9990", "line2": "2 39084  98.2083  46.8827 0001160  84.7723 275.3608 14.57102749669574"}}, "geometry": {"type": "Point", "coordinates": [48.697318546397305, -8.763380071385692]}}, {"type": "Feature", "properties": {"norad_id": 39086, "name": "SARAL", "group": "resource", "lat": -80.75382032697466, "lon": -129.18683104251053, "alt_km": 791.5503269096716, "timestamp": "2025-12-05T05:43:14.771347+00:00", "meta": {"OBJECT_NAME": "SARAL", "OBJECT_ID": "2013-009A", "EPOCH": "2025-12-04T16:42:56.334240", "MEAN_MOTION": 14.32752783, "ECCENTRICITY": 0.0002671, "INCLINATION": 98.5506, "RA_OF_ASC_NODE": 162.7318, "ARG_OF_PERICENTER": 124.0685, "MEAN_ANOMALY": 236.0752, "EPHEMERIS_TYPE": 0, "CLASSIFICATION_TYPE": "U", "NORAD_CAT_ID": 39086, "ELEMENT_SET_NO": 999, "REV_AT_EPOCH": 66775, "BSTAR": 0.00011941, "MEAN_MOTION_DOT": 2.82e-06, "MEAN_MOTION_DDOT": 0}, "tle": {"line1": "1 39086U 13009A   25338.69648535  .00000282  00000+0  11941-3 0  9996", "line2": "2 39086  98.5506 162.7318 0002671 124.0685 236.0752 14.32752783667759"}}, "geometry": {"type": "Point", "coordinates": [-129.18683104251053, -80.75382032697466]}}, {"type": "Feature", "properties": {"norad_id": 39150, "name": "GAOFEN-1", "group": "resource", "lat": -48.13842462003306, "lon": 58.98343375625738, "alt_km": 657.3717379352129, "timestamp": "2025-12-05T05:43:14.771357+00:00", "meta": {"OBJECT_NAME": "GAOFEN-1", "OBJECT_ID": "2013-018A", "EPOCH": "2025-12-04T18:33:24.773760", "MEAN_MOTION": 14.765122, "ECCENTRICITY": 0.0017736, "INCLINATION": 97.9336, "RA_OF_ASC_NODE": 49.573, "ARG_OF_PERICENTER": 168.0019, "MEAN_ANOMALY": 192.1617, "EPHEMERIS_TYPE": 0, "CLASSIFICATION_TYPE": "U", "NORAD_CAT_ID": 39150, "ELEMENT_SET_NO": 999, "REV_AT_EPOCH": 67955, "BSTAR": 0.0002314, "MEAN_MOTION_DOT": 1.565e-05, "MEAN_MOTION_DDOT": 0}, "tle": {"line1": "1 39150U 13018A   25338.77320340  .00001565  00000+0  23140-3 0  9997", "line2": "2 39150  97.9336  49.5730 0017736 168.0019 192.1617 14.76512200679551"}}, "geometry": {"type": "Point", "coordinates": [58.98343375625738, -48.13842462003306]}}, {"type": "Feature", "properties": {"norad_id": 39160, "name": "VNREDSAT 1", "group": "resource", "lat": -32.9780424810831, "lon": 39.97067674034105, "alt_km": 683.9357328509377, "timestamp": "2025-12-05T05:43:14.771367+00:00", "meta": {"OBJECT_NAME": "VNREDSAT 1", "OBJECT_ID": "2013-021B", "EPOCH": "2025-12-04T18:23:50.815104", "MEAN_MOTION": 14.64904471, "ECCENTRICITY": 0.0001349, "INCLINATION": 97.9385, "RA_OF_ASC_NODE": 34.3206, "ARG_OF_PERICENTER": 83.6428, "MEAN_ANOMALY": 276.4929, "EPHEMERIS_TYPE": 0, "CLASSIFICATION_TYPE": "U", "NORAD_CAT_ID": 39160, "ELEMENT_SET_NO": 999, "REV_AT_EPOCH": 67182, "BSTAR": 0.00026543, "MEAN_MOTION_DOT": 1.373e-05, "MEAN_MOTION_DDOT": 0}, "tle": {"line1": "1 39160U 13021B   25338.76656036  .00001373  00000+0  26543-3 0  9992", "line2": "2 39160  97.9385  34.3206 0001349  83.6428 276.4929 14.64904471671821"}}, "geometry": {"type": "Point", "coordinates": [39.97067674034105, -32.9780424810831]}}, {"type": "Feature", "properties": {"norad_id": 39227, "name": "ARIRANG-5 (KOMPSAT-5)", "group": "resource", "lat": 56.8166210602912, "lon": 151.84449378983152, "alt_km": 544.8533349713898, "timestamp": "2025-12-05T05:43:14.771377+00:00", "meta": {"OBJECT_NAME": "ARIRANG-5 (KOMPSAT-5)", "OBJECT_ID": "2013-042A", "EPOCH": "2025-12-04T18:17:32.499744", "MEAN_MOTION": 15.04511877, "ECCENTRICITY": 0.0004173, "INCLINATION": 97.6151, "RA_OF_ASC_NODE": 163.1802, "ARG_OF_PERICENTER": 79.1291, "MEAN_ANOMALY": 281.0404, "EPHEMERIS_TYPE": 0, "CLASSIFICATION_TYPE": "U", "NORAD_CAT_ID": 39227, "ELEMENT_SET_NO": 999, "REV_AT_EPOCH": 67462, "BSTAR": 0.00024026, "MEAN_MOTION_DOT": 3.305e-05, "MEAN_MOTION_DDOT": 0}, "tle": {"line1": "1 39227U 13042A   25338.76218171  .00003305  00000+0  24026-3 0  9994", "line2": "2 39227  97.6151 163.1802 0004173  79.1291 281.0404 15.04511877674622"}}, "geometry": {"type": "Point", "coordinates": [151.84449378983152, 56.8166210602912]}}, {"type": "Feature", "properties": {"norad_id": 39418, "name": "SKYSAT-A", "group": "resource", "lat": -59.827108323614084, "lon": -163.26392425872302, "alt_km": 525.8312865511798, "timestamp": "2025-12-05T05:43:14.771387+00:00", "meta": {"OBJECT_NAME": "SKYSAT-A", "OBJECT_ID": "2013-066C", "EPOCH": "2025-12-04T15:56:50.841312", "MEAN_MOTION": 15.11511917, "ECCENTRICITY": 0.0020403, "INCLINATION": 97.4121, "RA_OF_ASC_NODE": 29.1189, "ARG_OF_PERICENTER": 266.4251, "MEAN_ANOMALY": 93.4646, "EPHEMERIS_TYPE": 0, "CLASSIFICATION_TYPE": "U", "NORAD_CAT_ID": 39418, "ELEMENT_SET_NO": 999, "REV_AT_EPOCH": 65908, "BSTAR": 0.00044387, "MEAN_MOTION_DOT": 7.494e-05, "MEAN_MOTION_DDOT": 0}, "tle": {"line1": "1 39418U 13066C   25338.66447733  .00007494  00000+0  44387-3 0  9994", "line2": "2 39418  97.4121  29.1189 0020403 266.4251  93.4646 15.11511917659088"}}, "geometry": {"type": "Point", "coordinates": [-163.26392425872302, -59.827108323614084]}}, {"type": "Feature", "properties": {"norad_id": 39419, "name": "DUBAISAT-2", "group": "resource", "lat": 67.96524217439905, "lon": 168.72502073180493, "alt_km": 539.0701885305616, "timestamp": "2025-12-05T05:43:14.771398+00:00", "meta": {"OBJECT_NAME": "DUBAISAT-2", "OBJECT_ID": "2013-066D", "EPOCH": "2025-12-04T18:05:09.535776", "MEAN_MOTION": 15.08235646, "ECCENTRICITY": 0.001131, "INCLINATION": 97.4438, "RA_OF_ASC_NODE": 329.4084, "ARG_OF_PERICENTER": 350.8034, "MEAN_ANOMALY": 9.2985, "EPHEMERIS_TYPE": 0, "CLASSIFICATION_TYPE": "U", "NORAD_CAT_ID": 39419, "ELEMENT_SET_NO": 999, "REV_AT_EPOCH": 65706, "BSTAR": 0.00059954, "MEAN_MOTION_DOT": 9.24e-05, "MEAN_MOTION_DDOT": 0}, "tle": {"line1": "1 39419U 13066D   25338.75358259  .00009240  00000+0  59954-3 0  9996", "line2": "2 39419  97.4438 329.4084 0011310 350.8034   9.2985 15.08235646657069"}}, "geometry": {"type": "Point", "coordinates": [168.72502073180493, 67.96524217439905]}}]}